NORAD_CAT_ID,OBJECT_NAME,OBJECT_TYPE,EPOCH,MEAN_MOTION,ECCENTRICITY,INCLINATION,RA_OF_ASC_NODE,ARG_OF_PERICENTER,MEAN_ANOMALY,BSTAR,MEAN_MOTION_DOT,MEAN_MOTION_DDOT,TLE_LINE0,TLE_LINE1,TLE_LINE2,SEMIMAJOR_AXIS,PERIOD,APOGEE,PERIGEE,DECAYED
53139.0,STARLINK-4185,PAYLOAD,2023-04-03 13:23:30,15.08843945,8.82e-05,53.2153,302.6186,102.1002,258.0089,0.00025705,3.806e-05,0.0,0 STARLINK-4185,1 53139U 22083H   23093.55799198  .00003806  00000-0  25705-3 0  9995,2 53139  53.2153 302.6186 0000882 102.1002 258.0089 15.08843945 40140,6917.868,95.437,540.343,539.123,0.0
53139.0,STARLINK-4185,PAYLOAD,2023-04-03 21:20:26,15.08842172,8.98e-05,53.2153,301.1315,103.5962,256.5131,0.00016413,2.326e-05,0.0,0 STARLINK-4185,1 53139U 22083H   23093.88919243  .00002326  00000-0  16413-3 0  9998,2 53139  53.2153 301.1315 0000898 103.5962 256.5131 15.08842172 39561,6917.874,95.437,540.36,539.118,0.0
53139.0,STARLINK-4185,PAYLOAD,2023-04-04 00:31:12,15.08845581,7.89e-05,53.2146,300.5357,93.0699,267.0383,0.00022201,3.248e-05,0.0,0 STARLINK-4185,1 53139U 22083H   23094.02167138  .00003248  00000-0  22201-3 0  9999,2 53139  53.2146 300.5357 0000789  93.0699 267.0383 15.08845581 39586,6917.863,95.437,540.274,539.183,0.0
53139.0,STARLINK-4185,PAYLOAD,2023-04-04 21:11:12,15.08846668,7.87e-05,53.2144,296.669,84.5746,275.5336,0.00014315,1.992e-05,0.0,0 STARLINK-4185,1 53139U 22083H   23094.88278890  .00001992  00000-0  14315-3 0  9992,2 53139  53.2144 296.6690 0000787  84.5746 275.5336 15.08846668 40340,6917.86,95.437,540.269,539.181,0.0
53139.0,STARLINK-4185,PAYLOAD,2023-04-05 13:05:04,15.08837764,8.57e-05,53.215,293.6945,90.8057,269.3034,1.4525e-06,-2.65e-06,0.0,0 STARLINK-4185,1 53139U 22083H   23095.54519260 -.00000265  00000-0  14525-5 0  9993,2 53139  53.2150 293.6945 0000857  90.8057 269.3034 15.08837764 39813,6917.887,95.438,540.345,539.159,0.0
53139.0,STARLINK-4185,PAYLOAD,2023-04-05 19:26:37,15.08839235,9.28e-05,53.2167,292.5081,77.3735,282.7361,6.3152e-05,7.17e-06,0.0,0 STARLINK-4185,1 53139U 22083H   23095.81015360  .00000717  00000-0  63152-4 0  9995,2 53139  53.2167 292.5081 0000928  77.3735 282.7361 15.08839235 39853,6917.883,95.438,540.39,539.106,0.0
53139.0,STARLINK-4185,PAYLOAD,2023-04-06 12:55:51,15.08840216,0.0001038,53.2155,289.2365,75.0926,285.0181,7.9096e-05,9.71e-06,0.0,0 STARLINK-4185,1 53139U 22083H   23096.53879378  .00000971  00000-0  79096-4 0  9998,2 53139  53.2155 289.2365 0001038  75.0926 285.0181 15.08840216 39967,6917.88,95.438,540.463,539.027,0.0
53139.0,STARLINK-4185,PAYLOAD,2023-04-06 19:17:24,15.08842619,0.0001053,53.2165,288.0467,82.9364,277.1748,0.00013974,1.937e-05,0.0,0 STARLINK-4185,1 53139U 22083H   23096.80375016  .00001937  00000-0  13974-3 0  9993,2 53139  53.2165 288.0467 0001053  82.9364 277.1748 15.08842619 40634,6917.872,95.437,540.466,539.009,0.0
53139.0,STARLINK-4185,PAYLOAD,2023-04-07 11:11:15,15.08839944,0.0001181,53.217,285.073,89.122,270.9908,0.00011564,1.553e-05,0.0,0 STARLINK-4185,1 53139U 22083H   23097.46615315  .00001553  00000-0  11564-3 0  9992,2 53139  53.2170 285.0730 0001181  89.1220 270.9908 15.08839944 40100,6917.881,95.438,540.563,538.929,0.0
53139.0,STARLINK-4185,PAYLOAD,2023-04-07 19:08:11,15.08843809,8.85e-05,53.2158,283.5846,86.5122,273.5971,0.00011844,1.598e-05,0.0,0 STARLINK-4185,1 53139U 22083H   23097.79735149  .00001598  00000-0  11844-3 0  9996,2 53139  53.2158 283.5846 0000885  86.5122 273.5971 15.08843809 40787,6917.869,95.437,540.346,539.122,0.0
53139.0,STARLINK-4185,PAYLOAD,2023-04-08 20:34:21,15.08840581,9.81e-05,53.2171,278.8272,87.9467,272.1638,5.0589e-05,5.17e-06,0.0,0 STARLINK-4185,1 53139U 22083H   23098.85719531  .00000517  00000-0  50589-4 0  9991,2 53139  53.2171 278.8272 0000981  87.9467 272.1638 15.08840581 40943,6917.879,95.438,540.422,539.065,0.0
53139.0,STARLINK-4185,PAYLOAD,2023-04-09 12:28:13,15.08840021,0.0001626,53.2176,275.8514,115.4698,244.6462,-5.6284e-05,-1.184e-05,0.0,0 STARLINK-4185,1 53139U 22083H   23099.51959965 -.00001184  00000-0 -56284-4 0  9993,2 53139  53.2176 275.8514 0001626 115.4698 244.6462 15.08840021 40414,6917.88,95.438,540.87,538.62,0.0
53139.0,STARLINK-4185,PAYLOAD,2023-04-09 20:25:08,15.08843502,0.0001009,53.2166,274.3663,87.4543,272.6564,9.102e-05,1.161e-05,0.0,0 STARLINK-4185,1 53139U 22083H   23099.85079471  .00001161  00000-0  91020-4 0  9995,2 53139  53.2166 274.3663 0001009  87.4543 272.6564 15.08843502 40460,6917.87,95.437,540.433,539.037,0.0
53139.0,STARLINK-4185,PAYLOAD,2023-04-10 04:22:04,15.08840431,9.53e-05,53.2163,272.8797,83.569,276.541,0.00012138,1.645e-05,0.0,0 STARLINK-4185,1 53139U 22083H   23100.18199704  .00001645  00000-0  12138-3 0  9995,2 53139  53.2163 272.8797 0000953  83.5690 276.5410 15.08840431 41142,6917.879,95.438,540.403,539.085,0.0
53139.0,STARLINK-4185,PAYLOAD,2023-04-10 12:19:00,15.0883896,0.0001167,53.2166,271.3929,94.9463,265.1662,0.00010297,1.351e-05,0.0,0 STARLINK-4185,1 53139U 22083H   23100.51319985  .00001351  00000-0  10297-3 0  9995,2 53139  53.2166 271.3929 0001167  94.9463 265.1662 15.08838960 40560,6917.884,95.438,540.556,538.941,0.0
53139.0,STARLINK-4185,PAYLOAD,2023-04-10 20:15:55,15.08847489,0.0001214,53.2169,269.9063,88.7252,271.388,0.00013127,1.802e-05,0.0,0 STARLINK-4185,1 53139U 22083H   23100.84439337  .00001802  00000-0  13127-3 0  9991,2 53139  53.2169 269.9063 0001214  88.7252 271.3880 15.08847489 40618,6917.857,95.437,540.562,538.883,0.0
53139.0,STARLINK-4185,PAYLOAD,2023-04-11 12:09:47,15.08830906,0.0001072,53.217,266.9349,78.3811,281.7302,-9.8007e-05,-1.847e-05,0.0,0 STARLINK-4185,1 53139U 22083H   23101.50680322 -.00001847  00000-0 -98007-4 0  9999,2 53139  53.2170 266.9349 0001072  78.3811 281.7302 15.08830906 41343,6917.908,95.438,540.515,539.032,0.0
53139.0,STARLINK-4185,PAYLOAD,2023-04-12 10:25:12,15.08815763,8.83e-05,53.2182,262.7723,41.0518,319.054,-0.00019862,-3.445e-05,0.0,0 STARLINK-4185,1 53139U 22083H   23102.43417038 -.00003445  00000-0 -19862-3 0  9991,2 53139  53.2182 262.7723 0000883  41.0518 319.0540 15.08815763 40854,6917.954,95.439,540.43,539.209,0.0
53139.0,STARLINK-4185,PAYLOAD,2023-04-12 16:46:43,15.08846816,0.0001195,53.2181,261.5832,59.3548,300.7562,7.4539e-05,8.99e-06,0.0,0 STARLINK-4185,1 53139U 22083H   23102.69911555  .00000899  00000-0  74539-4 0  9993,2 53139  53.2181 261.5832 0001195  59.3548 300.7562 15.08846816 41522,6917.86,95.437,540.551,538.898,0.0
53139.0,STARLINK-4185,PAYLOAD,2023-04-13 10:15:58,15.08834,0.0001049,53.2184,258.3121,63.6199,296.49,1.7647e-06,-2.6e-06,0.0,0 STARLINK-4185,1 53139U 22083H   23103.42776203 -.00000260  00000-0  17647-5 0  9995,2 53139  53.2184 258.3121 0001049  63.6199 296.4900 15.08834000 41000,6917.899,95.438,540.489,539.038,0.0
53139.0,STARLINK-4185,PAYLOAD,2023-04-13 19:48:16,15.08851912,0.0001214,53.2168,256.525,69.0742,291.038,0.00015709,2.214e-05,0.0,0 STARLINK-4185,1 53139U 22083H   23103.82519250  .00002214  00000-0  15709-3 0  9991,2 53139  53.2168 256.5250 0001214  69.0742 291.0380 15.08851912 41692,6917.844,95.437,540.549,538.869,0.0
53139.0,STARLINK-4185,PAYLOAD,2023-04-14 10:06:45,15.08842112,0.0001046,53.2158,253.8497,72.2343,287.8763,0.00019765,2.859e-05,0.0,0 STARLINK-4185,1 53139U 22083H   23104.42135587  .00002859  00000-0  19765-3 0  9996,2 53139  53.2158 253.8497 0001046  72.2343 287.8763 15.08842112 41780,6917.874,95.437,540.463,539.015,0.0
53139.0,STARLINK-4185,PAYLOAD,2023-04-14 16:28:16,15.08855783,7.23e-05,53.2215,252.6618,72.1229,287.9842,0.00036036,5.454e-05,0.0,0 STARLINK-4185,1 53139U 22083H   23104.68630744  .00005454  00000-0  36036-3 0  9993,2 53139  53.2215 252.6618 0000723  72.1229 287.9842 15.08855783 41821,6917.832,95.437,540.197,539.197,0.0
53139.0,STARLINK-4185,PAYLOAD,2023-04-15 13:08:18,15.08833023,0.0001528,53.2203,248.7976,105.1837,254.9324,1.899e-05,1.4e-07,0.0,0 STARLINK-4185,1 53139U 22083H   23105.54743764  .00000014  00000-0  18990-4 0  9993,2 53139  53.2203 248.7976 0001528 105.1837 254.9324 15.08833023 41953,6917.902,95.438,540.824,538.71,0.0
53139.0,STARLINK-4185,PAYLOAD,2023-04-15 19:29:50,15.08844021,0.0001403,53.2173,247.6049,99.2534,260.8616,1.8716e-05,1e-07,0.0,0 STARLINK-4185,1 53139U 22083H   23105.81239246  .00000010  00000-0  18716-4 0  9990,2 53139  53.2173 247.6049 0001403  99.2534 260.8616 15.08844021 41991,6917.868,95.437,540.704,538.763,0.0
53139.0,STARLINK-4185,PAYLOAD,2023-04-16 12:59:05,15.08836773,0.0001517,53.2164,244.3338,93.3403,266.7763,-4.9046e-05,-1.068e-05,0.0,0 STARLINK-4185,1 53139U 22083H   23106.54103900 -.00001068  00000-0 -49046-4 0  9994,2 53139  53.2164 244.3338 0001517  93.3403 266.7763 15.08836773 41478,6917.89,95.438,540.805,538.706,0.0
53139.0,STARLINK-4185,PAYLOAD,2023-04-16 17:45:14,15.08845665,0.0001818,53.2177,243.444,103.9906,256.1288,0.00012373,1.682e-05,0.0,0 STARLINK-4185,1 53139U 22083H   23106.73975582  .00001682  00000-0  12373-3 0  9990,2 53139  53.2177 243.4440 0001818 103.9906 256.1288 15.08845665 41505,6917.863,95.437,540.986,538.47,0.0
53139.0,STARLINK-4185,PAYLOAD,2023-04-17 01:42:10,15.08832728,0.0001225,53.2164,241.9541,85.2702,274.843,7.7203e-06,-1.65e-06,0.0,0 STARLINK-4185,1 53139U 22083H   23107.07095946 -.00000165  00000-0  77203-5 0  9996,2 53139  53.2164 241.9541 0001225  85.2702 274.8430 15.08832728 42181,6917.903,95.438,540.615,538.92,0.0
53139.0,STARLINK-4185,PAYLOAD,2023-04-17 12:49:53,15.08832346,0.0001307,53.2171,239.8738,104.2554,255.8583,6.1057e-05,6.84e-06,0.0,0 STARLINK-4185,1 53139U 22083H   23107.53464471  .00000684  00000-0  61057-4 0  9994,2 53139  53.2171 239.8738 0001307 104.2554 255.8583 15.08832346 41623,6917.904,95.438,540.673,538.865,0.0
53139.0,STARLINK-4185,PAYLOAD,2023-04-17 19:11:25,15.08846409,0.0001128,53.2162,238.6815,94.1558,265.9563,0.00033039,4.975e-05,0.0,0 STARLINK-4185,1 53139U 22083H   23107.79959964  .00004975  00000-0  33039-3 0  9993,2 53139  53.2162 238.6815 0001128  94.1558 265.9563 15.08846409 41667,6917.861,95.437,540.506,538.945,0.0
